ONEWEB-0531             
1 54146U 22138AK  26027.47637309  .00000057  00000+0  10761-3 0  9991
2 54146  87.9229 302.5131 0002317  97.2448 262.8949 13.20773563160735
ONEWEB-0535             
1 54147U 22138AL  26027.59077119  .00000020  00000+0  18287-4 0  9994
2 54147  87.9253 332.9315 0002146  82.2517 277.8860 13.19728407158296
ONEWEB-0536             
1 54148U 22138AM  26027.46373369  .00000089  00000+0  18582-3 0  9999
2 54148  87.9217 302.5544 0002290 102.1197 258.0193 13.20775211160728
ONEWEB-0527             
1 54642U 22166A   26027.37540317  .00000002  00000+0 -26158-4 0  9993
2 54642  87.9204 272.0888 0001593  77.5164 282.6148 13.21825591152934
ONEWEB-0528             
1 54643U 22166B   26027.60906443 -.00000410  00000+0 -10248-2 0  9991
2 54643  87.9201 272.0468 0001461  80.7314 279.3985 13.21826051152971
ONEWEB-0539             
1 54644U 22166C   26027.64693682  .00000017  00000+0  10450-4 0  9992
2 54644  87.9200 272.0041 0001543  72.9161 287.2141 13.21826549152976
ONEWEB-0540             
1 54645U 22166D   26027.65364345 -.00000067  00000+0 -19474-3 0  9996
2 54645  87.9196 272.0404 0001652  76.4017 283.7301 13.21825252152962
ONEWEB-0542             
1 54646U 22166E   26027.65680770  .00000020  00000+0  17070-4 0  9998
2 54646  87.9199 271.9976 0001735  68.7250 291.4069 13.21827427152977
